TIANMU-1 21             
1 58662U 23208C   26068.90848455  .00012722  00000+0  40064-3 0  9997
2 58662  97.4378 187.7048 0005980 317.2488  42.8288 15.33041299122348
GEOSCAN 4 (RS92S4)      
1 64892U 25155S   26068.90981163  .00020121  00000+0  68610-3 0  9995
2 64892  97.4465  37.7626 0007096 154.7045 205.4544 15.30369837 65623
